start=new Date('2023-05-28T00:00:00.000Z').valueOf();
sats=[{"ARG_OF_PERICENTER":"101.9533","PERIOD":"95.593","GP_ID":"232631458","TIME_SYSTEM":"UTC","COUNTRY_CODE":"US","OBJECT_ID":"2020-035BG","PERIAPSIS":"546.442","BSTAR":"-0.00039846000000","DECAY_DATE":null,"MEAN_MOTION_DDOT":"0.0000000000000","RA_OF_ASC_NODE":"282.2868","INCLINATION":"53.0552","APOAPSIS":"548.066","MEAN_MOTION_DOT":"-0.00006209","LAUNCH_DATE":"2020-06-04","ELEMENT_SET_NO":"999","REV_AT_EPOCH":"16585","MEAN_ANOMALY":"258.1588","EPHEMERIS_TYPE":"0","CLASSIFICATION_TYPE":"U","OBJECT_TYPE":"PAYLOAD","RCS_SIZE":"LARGE","FILE":"3918755","MEAN_MOTION":"15.06386770","REF_FRAME":"TEME","OBJECT_NAME":"STARLINK-1433","TLE_LINE1":"1 45711U 20035BG  23147.65018173 -.00006209  00000-0 -39846-3 0  9998","CENTER_NAME":"EARTH","ECCENTRICITY":"0.00011720","SITE":"AFETR","TLE_LINE2":"2 45711  53.0552 282.2868 0001172 101.9533 258.1588 15.06386770165854","EPOCH":"2023-05-27T15:36:15.701472","SEMIMAJOR_AXIS":"6925.389","NORAD_CAT_ID":"45711","MEAN_ELEMENT_THEORY":"SGP4"},{"COUNTRY_CODE":"US","TIME_SYSTEM":"UTC","GP_ID":"232630706","ARG_OF_PERICENTER":"100.4336","PERIOD":"95.593","MEAN_MOTION_DDOT":"0.0000000000000","DECAY_DATE":null,"BSTAR":"-0.00009362100000","PERIAPSIS":"546.554","OBJECT_ID":"2020-035BH","MEAN_ANOMALY":"259.6764","REV_AT_EPOCH":"16586","LAUNCH_DATE":"2020-06-04","ELEMENT_SET_NO":"999","MEAN_MOTION_DOT":"-0.00001675","APOAPSIS":"547.927","INCLINATION":"53.0536","RA_OF_ASC_NODE":"282.3036","OBJECT_TYPE":"PAYLOAD","CLASSIFICATION_TYPE":"U","EPHEMERIS_TYPE":"0","RCS_SIZE":"LARGE","ECCENTRICITY":"0.00009910","CENTER_NAME":"EARTH","TLE_LINE1":"1 45712U 20035BH  23147.64649434 -.00001675  00000-0 -93621-4 0  9992","OBJECT_NAME":"STARLINK-1434","REF_FRAME":"TEME","FILE":"3918755","MEAN_MOTION":"15.06391251","SITE":"AFETR","MEAN_ELEMENT_THEORY":"SGP4","NORAD_CAT_ID":"45712","EPOCH":"2023-05-27T15:30:57.110976","SEMIMAJOR_AXIS":"6925.375","TLE_LINE2":"2 45712  53.0536 282.3036 0000991 100.4336 259.6764 15.06391251165861"},{"OBJECT_TYPE":"PAYLOAD","CLASSIFICATION_TYPE":"U","EPHEMERIS_TYPE":"0","REV_AT_EPOCH":"16559","MEAN_ANOMALY":"260.0442","APOAPSIS":"548.114","LAUNCH_DATE":"2020-06-04","ELEMENT_SET_NO":"999","MEAN_MOTION_DOT":"-0.00001777","RA_OF_ASC_NODE":"301.6168","INCLINATION":"53.0543","DECAY_DATE":null,"MEAN_MOTION_DDOT":"0.0000000000000","BSTAR":"-0.00010047000000","PERIAPSIS":"546.374","OBJECT_ID":"2020-035BJ","COUNTRY_CODE":"US","TIME_SYSTEM":"UTC","PERIOD":"95.593","ARG_OF_PERICENTER":"100.0688","GP_ID":"232630956","MEAN_ELEMENT_THEORY":"SGP4","SEMIMAJOR_AXIS":"6925.379","EPOCH":"2023-05-27T19:11:13.588512","NORAD_CAT_ID":"45713","TLE_LINE2":"2 45713  53.0543 301.6168 0001256 100.0688 260.0442 15.06390106165599","SITE":"AFETR","TLE_LINE1":"1 45713U 20035BJ  23147.79946283 -.00001777  00000-0 -10047-3 0  9994","ECCENTRICITY":"0.00012560","CENTER_NAME":"EARTH","OBJECT_NAME":"STARLINK-1436","REF_FRAME":"TEME","FILE":"3918755","MEAN_MOTION":"15.06390106","RCS_SIZE":"LARGE"},{"NORAD_CAT_ID":"45714","EPOCH":"2023-05-27T15:46:52.795200","SEMIMAJOR_AXIS":"6925.359","TLE_LINE2":"2 45714  53.0545 282.2509 0000921 106.8489 253.2601 15.06396460165866","MEAN_ELEMENT_THEORY":"SGP4","SITE":"AFETR","REF_FRAME":"TEME","FILE":"3918755","MEAN_MOTION":"15.06396460","CENTER_NAME":"EARTH","ECCENTRICITY":"0.00009210","TLE_LINE1":"1 45714U 20035BK  23147.65755550 -.00002597  00000-0 -15554-3 0  9994","OBJECT_NAME":"STARLINK-1437","RCS_SIZE":"LARGE","CLASSIFICATION_TYPE":"U","EPHEMERIS_TYPE":"0","OBJECT_TYPE":"PAYLOAD","RA_OF_ASC_NODE":"282.2509","INCLINATION":"53.0545","MEAN_ANOMALY":"253.2601","REV_AT_EPOCH":"16586","LAUNCH_DATE":"2020-06-04","MEAN_MOTION_DOT":"-0.00002597","ELEMENT_SET_NO":"999","APOAPSIS":"547.862","PERIAPSIS":"546.587","OBJECT_ID":"2020-035BK","MEAN_MOTION_DDOT":"0.0000000000000","DECAY_DATE":null,"BSTAR":"-0.00015554000000","GP_ID":"232631208","ARG_OF_PERICENTER":"106.8489","PERIOD":"95.592","COUNTRY_CODE":"US","TIME_SYSTEM":"UTC"},{"SITE":"AFETR","SEMIMAJOR_AXIS":"6925.364","EPOCH":"2023-05-27T16:02:48.070752","NORAD_CAT_ID":"45730","TLE_LINE2":"2 45730  53.0548 122.2014 0001350 102.2410 257.8731 15.06394996162911","MEAN_ELEMENT_THEORY":"SGP4","RCS_SIZE":"LARGE","REF_FRAME":"TEME","MEAN_MOTION":"15.06394996","FILE":"3918755","TLE_LINE1":"1 45730U 20038A   23147.66861193  .00000736  00000-0  68337-4 0  9996","CENTER_NAME":"EARTH","ECCENTRICITY":"0.00013500","OBJECT_NAME":"STARLINK-1461","INCLINATION":"53.0548","RA_OF_ASC_NODE":"122.2014","REV_AT_EPOCH":"16291","MEAN_ANOMALY":"257.8731","APOAPSIS":"548.164","LAUNCH_DATE":"2020-06-13","MEAN_MOTION_DOT":"0.00000736","ELEMENT_SET_NO":"999","CLASSIFICATION_TYPE":"U","EPHEMERIS_TYPE":"0","OBJECT_TYPE":"PAYLOAD","ARG_OF_PERICENTER":"102.2410","PERIOD":"95.592","GP_ID":"232631459","COUNTRY_CODE":"US","TIME_SYSTEM":"UTC","PERIAPSIS":"546.294","OBJECT_ID":"2020-038A","DECAY_DATE":null,"MEAN_MOTION_DDOT":"0.0000000000000","BSTAR":"0.00006833700000"},{"TLE_LINE1":"1 45731U 20038B   23147.21891368  .00000378  00000-0  44232-4 0  9995","ECCENTRICITY":"0.00010730","CENTER_NAME":"EARTH","OBJECT_NAME":"STARLINK-1465","REF_FRAME":"TEME","FILE":"3918005","MEAN_MOTION":"15.06403380","RCS_SIZE":"LARGE","MEAN_ELEMENT_THEORY":"SGP4","SEMIMAJOR_AXIS":"6925.338","EPOCH":"2023-05-27T05:15:14.141952","NORAD_CAT_ID":"45731","TLE_LINE2":"2 45731  53.0533 124.2163 0001073  81.7668 278.3443 15.06403380163806","SITE":"AFETR","DECAY_DATE":null,"MEAN_MOTION_DDOT":"0.0000000000000","BSTAR":"0.00004423200000","PERIAPSIS":"546.460","OBJECT_ID":"2020-038B","COUNTRY_CODE":"US","TIME_SYSTEM":"UTC","ARG_OF_PERICENTER":"81.7668","PERIOD":"95.592","GP_ID":"232594136","OBJECT_TYPE":"PAYLOAD","CLASSIFICATION_TYPE":"U","EPHEMERIS_TYPE":"0","REV_AT_EPOCH":"16380","MEAN_ANOMALY":"278.3443","APOAPSIS":"547.946","ELEMENT_SET_NO":"999","LAUNCH_DATE":"2020-06-13","MEAN_MOTION_DOT":"0.00000378","RA_OF_ASC_NODE":"124.2163","INCLINATION":"53.0533"},{"TIME_SYSTEM":"UTC","COUNTRY_CODE":"US","GP_ID":"232630957","ARG_OF_PERICENTER":"87.5968","PERIOD":"95.593","BSTAR":"0.00001432600000","MEAN_MOTION_DDOT":"0.0000000000000","DECAY_DATE":null,"OBJECT_ID":"2020-038C","PERIAPSIS":"546.307","LAUNCH_DATE":"2020-06-13","ELEMENT_SET_NO":"999","MEAN_MOTION_DOT":"-0.00000068","APOAPSIS":"548.170","MEAN_ANOMALY":"272.5175","REV_AT_EPOCH":"16294","RA_OF_ASC_NODE":"120.9897","INCLINATION":"53.0523","OBJECT_TYPE":"PAYLOAD","EPHEMERIS_TYPE":"0","CLASSIFICATION_TYPE":"U","RCS_SIZE":"LARGE","OBJECT_NAME":"STARLINK-1466","CENTER_NAME":"EARTH","ECCENTRICITY":"0.00013450","TLE_LINE1":"1 45732U 20038C   23147.93767943 -.00000068  00000-0  14326-4 0  9994","MEAN_MOTION":"15.06391777","FILE":"3918755","REF_FRAME":"TEME","SITE":"AFETR","MEAN_ELEMENT_THEORY":"SGP4","TLE_LINE2":"2 45732  53.0523 120.9897 0001345  87.5968 272.5175 15.06391777162940","NORAD_CAT_ID":"45732","EPOCH":"2023-05-27T22:30:15.502752","SEMIMAJOR_AXIS":"6925.374"},{"MEAN_MOTION_DDOT":"0.0000000000000","DECAY_DATE":null,"BSTAR":"0.00029610000000","PERIAPSIS":"500.122","OBJECT_ID":"2020-038D","COUNTRY_CODE":"US","TIME_SYSTEM":"UTC","GP_ID":"232631209","PERIOD":"94.672","ARG_OF_PERICENTER":"12.2535","OBJECT_TYPE":"PAYLOAD","CLASSIFICATION_TYPE":"U","EPHEMERIS_TYPE":"0","MEAN_ANOMALY":"347.8551","REV_AT_EPOCH":"16308","LAUNCH_DATE":"2020-06-13","ELEMENT_SET_NO":"999","MEAN_MOTION_DOT":"0.00006336","APOAPSIS":"505.311","INCLINATION":"53.0480","RA_OF_ASC_NODE":"109.2345","CENTER_NAME":"EARTH","ECCENTRICITY":"0.00037710","TLE_LINE1":"1 45733U 20038D   23147.62058998  .00006336  00000-0  29610-3 0  9998","OBJECT_NAME":"STARLINK-1467","REF_FRAME":"TEME","MEAN_MOTION":"15.21035901","FILE":"3918755","RCS_SIZE":"LARGE","MEAN_ELEMENT_THEORY":"SGP4","NORAD_CAT_ID":"45733","SEMIMAJOR_AXIS":"6880.852","EPOCH":"2023-05-27T14:53:38.974272","TLE_LINE2":"2 45733  53.0480 109.2345 0003771  12.2535 347.8551 15.21035901163082","SITE":"AFETR"},{"GP_ID":"232593646","ARG_OF_PERICENTER":"64.1508","PERIOD":"95.044","COUNTRY_CODE":"US","TIME_SYSTEM":"UTC","PERIAPSIS":"519.234","OBJECT_ID":"2020-038E","MEAN_MOTION_DDOT":"0.0000000000000","DECAY_DATE":null,"BSTAR":"0.00073614000000","RA_OF_ASC_NODE":"116.0100","INCLINATION":"53.0540","MEAN_ANOMALY":"295.9707","REV_AT_EPOCH":"16406","MEAN_MOTION_DOT":"0.00013662","LAUNCH_DATE":"2020-06-13","ELEMENT_SET_NO":"999","APOAPSIS":"522.213","CLASSIFICATION_TYPE":"U","EPHEMERIS_TYPE":"0","OBJECT_TYPE":"PAYLOAD","RCS_SIZE":"LARGE","REF_FRAME":"TEME","FILE":"3918006","MEAN_MOTION":"15.15084586","CENTER_NAME":"EARTH","ECCENTRICITY":"0.00021590","TLE_LINE1":"1 45734U 20038E   23147.19937010  .00013662  00000-0  73614-3 0  9995","OBJECT_NAME":"STARLINK-1468","SITE":"AFETR","NORAD_CAT_ID":"45734","EPOCH":"2023-05-27T04:47:05.576640","SEMIMAJOR_AXIS":"6898.859","TLE_LINE2":"2 45734  53.0540 116.0100 0002159  64.1508 295.9707 15.15084586164061","MEAN_ELEMENT_THEORY":"SGP4"},{"MEAN_ELEMENT_THEORY":"SGP4","TLE_LINE2":"2 45735  53.0536 121.1771 0001244 101.2174 258.8955 15.06390945162930","SEMIMAJOR_AXIS":"6925.376","EPOCH":"2023-05-27T21:31:52.458816","NORAD_CAT_ID":"45735","SITE":"AFETR","OBJECT_NAME":"STARLINK-1471","TLE_LINE1":"1 45735U 20038F   23147.89713494  .00000722  00000-0  67341-4 0  9995","ECCENTRICITY":"0.00012440","CENTER_NAME":"EARTH","MEAN_MOTION":"15.06390945","FILE":"3918755","REF_FRAME":"TEME","RCS_SIZE":"LARGE","OBJECT_TYPE":"PAYLOAD","EPHEMERIS_TYPE":"0","CLASSIFICATION_TYPE":"U","APOAPSIS":"548.103","MEAN_MOTION_DOT":"0.00000722","LAUNCH_DATE":"2020-06-13","ELEMENT_SET_NO":"999","REV_AT_EPOCH":"16293","MEAN_ANOMALY":"258.8955","INCLINATION":"53.0536","RA_OF_ASC_NODE":"121.1771","BSTAR":"0.00006734100000","DECAY_DATE":null,"MEAN_MOTION_DDOT":"0.0000000000000","OBJECT_ID":"2020-038F","PERIAPSIS":"546.380","TIME_SYSTEM":"UTC","COUNTRY_CODE":"US","ARG_OF_PERICENTER":"101.2174","PERIOD":"95.593","GP_ID":"232630208"}];
